PROBA-1                 
1 26958U 01049B   22228.47755233  .00000470  00000+0  44656-4 0  9995
2 26958  97.8263 188.3660 0072184 143.0935 217.5285 14.96480643133457
BIRD 2                  
1 26959U 01049C   22227.25511878  .00009841  00000+0  20660-3 0  9995
2 26959  97.7632 323.0692 0007140 151.7508 208.4128 15.45566318462260
CUTE-1 (CO-55)          
1 27844U 03031E   22228.00457924  .00000154  00000+0  88782-4 0  9995
2 27844  98.6796 234.7933 0008725 292.9762  67.0495 14.22479868992374
CUBESAT XI-IV (CO-57)   
1 27848U 03031J   22228.47870959  .00000134  00000+0  80465-4 0  9995
2 27848  98.6841 235.7674 0008746 307.2719  52.7660 14.22033564992247
GENESIS 1               
1 29252U 06029A   22228.16783661  .00003062  00000+0  14090-3 0  9998
2 29252  64.5196 234.9403 0056985 253.5112 105.9746 15.21074984888120
FALCONSAT-3             
1 30776U 07006E   22227.69795300  .00034687  00000+0  45868-3 0  9991
2 30776  35.4292 231.0407 0004202 237.7545 122.2781 15.57300486858810
GENESIS 2               
1 31789U 07028A   22228.21784833  .00002862  00000+0  13741-3 0  9993
2 31789  64.4945 278.1073 0053264 306.4187  53.2031 15.19945280835047
APRIZESAT 4             
1 35684U 09041D   22228.01367142  .00000338  00000+0  51941-4 0  9997
2 35684  98.3105 243.7000 0047277 159.1828 201.1322 14.79698410703922
APRIZESAT 3             
1 35686U 09041F   22228.21489190  .00000529  00000+0  61622-4 0  9998
2 35686  98.1063 316.2207 0071777 352.1783   7.8308 14.88007219707545
PROBA-2                 
1 36037U 09059B   22227.77919706  .00000078  00000+0  29599-4 0  9995
2 36037  98.2248  53.2589 0012170 288.1386  71.8485 14.53281701677873
APRIZESAT 5             
1 37792U 11044E   22228.37168429  .00000357  00000+0  58915-4 0  9990
2 37792  98.3165 105.5424 0057827 172.0479 188.1660 14.75809349591973
APRIZESAT 6             
1 37793U 11044F   22228.50714816  .00000314  00000+0  57068-4 0  9994
2 37793  98.3955  82.6035 0045652 223.9974 209.3415 14.72827991590853
TET-1                   
1 38710U 12039D   22228.18305534  .00052698  00000+0  32805-3 0  9999
2 38710  97.5061 313.5544 0001750 164.4855 195.6465 15.76808389566806
PROBA-V                 
1 39159U 13021A   22228.34197766  .00000008  00000+0  21737-4 0  9994
2 39159  98.3538 261.2104 0002958 278.2917  81.7927 14.23044255481840
STPSAT-3                
1 39380U 13064A   22228.50286450  .00027226  00000+0  52936-3 0  9999
2 39380  40.4980  36.1724 0006758  11.8335 348.2640 15.46928024490247
APRIZESAT 7             
1 39416U 13066A   22228.47626589  .00000526  00000+0  67599-4 0  9994
2 39416  97.5767 205.6197 0041287 158.2488 202.0492 14.84527067472976
APRIZESAT 8             
1 39425U 13066K   22228.15101861  .00000420  00000+0  58782-4 0  9997
2 39425  97.6314 196.7892 0050782 203.5429 156.3460 14.81675254472072
BUGSAT-1 (TITA)         
1 40014U 14033E   22227.96560926  .00002375  00000+0  21072-3 0  9999
2 40014  98.1430 228.8107 0030040 197.4981 162.5211 14.96906644445044
SAUDISAT 4              
1 40016U 14033G   22227.77008159  .00000221  00000+0  39006-4 0  9990
2 40016  97.6408  59.3535 0046928 310.1942  49.5165 14.75598468439144
APRIZESAT 9             
1 40018U 14033J   22228.42812014  .00000230  00000+0  44532-4 0  9998
2 40018  97.7209  35.8109 0071584  22.1019 338.3247 14.70306997437599
APRIZESAT 10            
1 40019U 14033K   22228.43518285  .00000285  00000+0  55972-4 0  9993
2 40019  97.7757  25.5911 0085192  65.3910 295.6141 14.67348211436772
TDS 1                   
1 40076U 14037H   22227.70816816  .00001376  00000+0  16505-3 0  9990
2 40076  98.3830 103.7693 0005586 234.5659 125.5033 14.85831828438504
TIANTUO 2               
1 40144U 14053B   22228.49318863  .00004241  00000+0  11370-3 0  9999
2 40144  97.1922 307.2541 0010193 352.1692 134.6335 15.38471150444326
TECHNOSAT               
1 42829U 17042E   22228.31175397  .00000837  00000+0  87558-4 0  9995
2 42829  97.4157  78.9439 0014349 160.8811 199.2951 14.91979840277011
FLYING LAPTOP           
1 42831U 17042G   22228.56028139  .00001054  00000+0  10929-3 0  9995
2 42831  97.4179  79.5070 0014334 160.1800 199.9979 14.91878090277057
HAWK-A                  
1 43765U 18099H   22228.15949326  .00000834  00000+0  76818-4 0  9995
2 43765  97.6159 294.6502 0016176  72.4522 287.8466 14.97233370202076
HAWK-B                  
1 43794U 18099AN  22228.15987432  .00000789  00000+0  72957-4 0  9996
2 43794  97.6159 294.6504 0016216  72.6932 287.6063 14.97232909202069
HAWK-C                  
1 43799U 18099AT  22228.15969673  .00000813  00000+0  75038-4 0  9999
2 43799  97.6156 294.5585 0016092  72.4949 287.8031 14.97233030202060
SALSAT                  
1 46495U 20068K   22227.81707062  .00001268  00000+0  94240-4 0  9999
2 46495  97.7311 169.1511 0018267  77.6925 282.6345 15.04713915103114
